{
    "links": {
        "self": "http://www.neowsapp.com/rest/v1/neo/3713992?api_key=iIulBulltgU6a56xZRHN4H3l9WmuAYTsLGpBGhQ2"
    },
    "id": "3713992",
    "neo_reference_id": "3713992",
    "name": "(2015 FG35)",
    "designation": "2015 FG35",
    "nasa_jpl_url": "http://ssd.jpl.nasa.gov/sbdb.cgi?sstr=3713992",
    "absolute_magnitude_h": 25.3,
    "estimated_diameter": {
        "kilometers": {
            "estimated_diameter_min": 0.0231502122,
            "estimated_diameter_max": 0.0517654482
        },
        "meters": {
            "estimated_diameter_min": 23.150212221,
            "estimated_diameter_max": 51.7654482198
        },
        "miles": {
            "estimated_diameter_min": 0.0143848705,
            "estimated_diameter_max": 0.0321655483
        },
        "feet": {
            "estimated_diameter_min": 75.9521422633,
            "estimated_diameter_max": 169.8341531374
        }
    },
    "is_potentially_hazardous_asteroid": false,
    "close_approach_data": [
        {
            "close_approach_date": "2015-03-07",
            "close_approach_date_full": "2015-Mar-07 11:42",
            "epoch_date_close_approach": 1425728520000,
            "relative_velocity": {
                "kilometers_per_second": "8.5005054273",
                "kilometers_per_hour": "30601.8195383512",
                "miles_per_hour": "19014.7805903716"
            },
            "miss_distance": {
                "astronomical": "0.0220699652",
                "lunar": "8.5852164628",
                "kilometers": "3301619.784894124",
                "miles": "2051531.4035579512"
            },
            "orbiting_body": "Earth"
        }
    ],
    "orbital_data": {
        "orbit_id": "3",
        "orbit_determination_date": "2017-04-06 08:34:55",
        "first_observation_date": "2015-03-19",
        "last_observation_date": "2015-03-23",
        "data_arc_in_days": 4,
        "observations_used": 8,
        "orbit_uncertainty": "9",
        "minimum_orbit_intersection": ".0149393",
        "jupiter_tisserand_invariant": "3.776",
        "epoch_osculation": "2457101.5",
        "eccentricity": ".5089181810908412",
        "semi_major_axis": "1.901555223037706",
        "inclination": "2.341719994322771",
        "ascending_node_longitude": "11.70820050584826",
        "orbital_period": "957.7713467135195",
        "perihelion_distance": ".9338191976855676",
        "perihelion_argument": "123.3671648341117",
        "aphelion_distance": "2.869291248389844",
        "perihelion_time": "2457064.311584152745",
        "mean_anomaly": "13.9781063099774",
        "mean_motion": ".3758725934277508",
        "equinox": "J2000",
        "orbit_class": {
            "orbit_class_type": "APO",
            "orbit_class_description": "Near-Earth asteroid orbits which cross the Earth’s orbit similar to that of 1862 Apollo",
            "orbit_class_range": "a (semi-major axis) > 1.0 AU; q (perihelion) < 1.017 AU"
        }
    },
    "is_sentry_object": false
}